[{"OBJECT_NAME":"STARLINK-5447","OBJECT_ID":"2022-175X","EPOCH":"2026-03-09T04:43:18.673824","MEAN_MOTION":15.08831851,"ECCENTRICITY":0.00012685,"INCLINATION":53.2191,"RA_OF_ASC_NODE":31.4361,"ARG_OF_PERICENTER":93.8484,"MEAN_ANOMALY":266.2653,"EPHEMERIS_TYPE":0,"CLASSIFICATION_TYPE":"U","NORAD_CAT_ID":54779,"ELEMENT_SET_NO":999,"REV_AT_EPOCH":18005,"BSTAR":-3.3152079e-5,"MEAN_MOTION_DOT":-8.15e-6,"MEAN_MOTION_DDOT":0},{"OBJECT_NAME":"CZ-6A DEB","OBJECT_ID":"2024-140AAU","EPOCH":"2026-03-09T16:48:50.985504","MEAN_MOTION":14.99127941,"ECCENTRICITY":0.00591225,"INCLINATION":89.196,"RA_OF_ASC_NODE":296.0099,"ARG_OF_PERICENTER":104.8686,"MEAN_ANOMALY":255.9106,"EPHEMERIS_TYPE":0,"CLASSIFICATION_TYPE":"U","NORAD_CAT_ID":61486,"ELEMENT_SET_NO":999,"REV_AT_EPOCH":8015,"BSTAR":0.0049724997,"MEAN_MOTION_DOT":0.00063139,"MEAN_MOTION_DDOT":0}]
